<?xml version="1.0" encoding="UTF-8"?>
<gpx version="1.1" creator="Overland device test" xmlns="http://www.topografix.com/GPX/1/1">
  <metadata><name>Overland mobile test</name><desc>Synthetic GPX for device import, editing and export checks.</desc></metadata>
  <wpt lat="43.733" lon="7.422"><name>Test stop</name><sym>Flag, Blue</sym></wpt>
  <trk><name>Mobile test route</name><trkseg>
    <trkpt lat="43.730" lon="7.420"><ele>25</ele></trkpt>
    <trkpt lat="43.731" lon="7.421"><ele>28</ele></trkpt>
    <trkpt lat="43.732" lon="7.422"><ele>35</ele></trkpt>
    <trkpt lat="43.733" lon="7.423"><ele>40</ele></trkpt>
    <trkpt lat="43.734" lon="7.424"><ele>32</ele></trkpt>
  </trkseg></trk>
</gpx>
